[{"OBJECT_NAME":"SES-5","OBJECT_ID":"2012-036A","EPOCH":"2026-04-05T08:04:38.574048","MEAN_MOTION":1.00271602,"ECCENTRICITY":0.00020105,"INCLINATION":0.0597,"RA_OF_ASC_NODE":303.1903,"ARG_OF_PERICENTER":75.2088,"MEAN_ANOMALY":301.3666,"EPHEMERIS_TYPE":0,"CLASSIFICATION_TYPE":"U","NORAD_CAT_ID":38652,"ELEMENT_SET_NO":999,"REV_AT_EPOCH":4372,"BSTAR":0,"MEAN_MOTION_DOT":3.5e-7,"MEAN_MOTION_DDOT":0},{"OBJECT_NAME":"INTELSAT 20 (IS-20)","OBJECT_ID":"2012-043A","EPOCH":"2026-04-05T13:13:57.674208","MEAN_MOTION":1.00269537,"ECCENTRICITY":0.00024025,"INCLINATION":0.0192,"RA_OF_ASC_NODE":137.4531,"ARG_OF_PERICENTER":34.3093,"MEAN_ANOMALY":289.0668,"EPHEMERIS_TYPE":0,"CLASSIFICATION_TYPE":"U","NORAD_CAT_ID":38740,"ELEMENT_SET_NO":999,"REV_AT_EPOCH":5001,"BSTAR":0,"MEAN_MOTION_DOT":-2.2e-7,"MEAN_MOTION_DDOT":0},{"OBJECT_NAME":"HYLAS 2","OBJECT_ID":"2012-043B","EPOCH":"2026-04-05T12:24:04.456800","MEAN_MOTION":1.00272405,"ECCENTRICITY":0.0002808,"INCLINATION":2.2397,"RA_OF_ASC_NODE":81.9371,"ARG_OF_PERICENTER":319.7571,"MEAN_ANOMALY":265.6026,"EPHEMERIS_TYPE":0,"CLASSIFICATION_TYPE":"U","NORAD_CAT_ID":38741,"ELEMENT_SET_NO":999,"REV_AT_EPOCH":5004,"BSTAR":0,"MEAN_MOTION_DOT":-2.55e-6,"MEAN_MOTION_DDOT":0},{"OBJECT_NAME":"INTELSAT 21 (IS-21)","OBJECT_ID":"2012-045A","EPOCH":"2026-04-05T02:12:09.119808","MEAN_MOTION":1.00272496,"ECCENTRICITY":0.00019521,"INCLINATION":0.0182,"RA_OF_ASC_NODE":208.739,"ARG_OF_PERICENTER":184.6489,"MEAN_ANOMALY":135.0477,"EPHEMERIS_TYPE":0,"CLASSIFICATION_TYPE":"U","NORAD_CAT_ID":38749,"ELEMENT_SET_NO":999,"REV_AT_EPOCH":4979,"BSTAR":0,"MEAN_MOTION_DOT":-2.84e-6,"MEAN_MOTION_DDOT":0},{"OBJECT_NAME":"ASTRA 2F","OBJECT_ID":"2012-051A","EPOCH":"2026-04-05T12:52:46.704288","MEAN_MOTION":1.0027003,"ECCENTRICITY":0.00013541,"INCLINATION":0.0639,"RA_OF_ASC_NODE":254.8409,"ARG_OF_PERICENTER":32.5613,"MEAN_ANOMALY":127.8253,"EPHEMERIS_TYPE":0,"CLASSIFICATION_TYPE":"U","NORAD_CAT_ID":38778,"ELEMENT_SET_NO":999,"REV_AT_EPOCH":4040,"BSTAR":0,"MEAN_MOTION_DOT":1.51e-6,"MEAN_MOTION_DDOT":0},{"OBJECT_NAME":"GSAT-10","OBJECT_ID":"2012-051B","EPOCH":"2026-04-05T14:55:46.534368","MEAN_MOTION":1.00273119,"ECCENTRICITY":0.00063176,"INCLINATION":0.0811,"RA_OF_ASC_NODE":265.6459,"ARG_OF_PERICENTER":172.1147,"MEAN_ANOMALY":63.0868,"EPHEMERIS_TYPE":0,"CLASSIFICATION_TYPE":"U","NORAD_CAT_ID":38779,"ELEMENT_SET_NO":999,"REV_AT_EPOCH":4937,"BSTAR":0,"MEAN_MOTION_DOT":-1.63e-6,"MEAN_MOTION_DDOT":0},{"OBJECT_NAME":"INTELSAT 23 (IS-23)","OBJECT_ID":"2012-057A","EPOCH":"2026-04-05T08:56:18.803904","MEAN_MOTION":1.00282383,"ECCENTRICITY":6.858e-5,"INCLINATION":0.0155,"RA_OF_ASC_NODE":247.5227,"ARG_OF_PERICENTER":147.8597,"MEAN_ANOMALY":239.3561,"EPHEMERIS_TYPE":0,"CLASSIFICATION_TYPE":"U","NORAD_CAT_ID":38867,"ELEMENT_SET_NO":999,"REV_AT_EPOCH":4922,"BSTAR":0,"MEAN_MOTION_DOT":-2.83e-6,"MEAN_MOTION_DDOT":0},{"OBJECT_NAME":"BEIDOU-2 G6","OBJECT_ID":"2012-059A","EPOCH":"2026-04-05T13:08:45.170592","MEAN_MOTION":1.00271756,"ECCENTRICITY":0.00109453,"INCLINATION":4.2382,"RA_OF_ASC_NODE":74.2871,"ARG_OF_PERICENTER":311.9868,"MEAN_ANOMALY":88.8156,"EPHEMERIS_TYPE":0,"CLASSIFICATION_TYPE":"U","NORAD_CAT_ID":38953,"ELEMENT_SET_NO":999,"REV_AT_EPOCH":4918,"BSTAR":0,"MEAN_MOTION_DOT":-1.73e-6,"MEAN_MOTION_DDOT":0},{"OBJECT_NAME":"LUCH-5B","OBJECT_ID":"2012-061A","EPOCH":"2026-04-05T04:06:35.644032","MEAN_MOTION":1.00273707,"ECCENTRICITY":0.00023371,"INCLINATION":10.3284,"RA_OF_ASC_NODE":50.5926,"ARG_OF_PERICENTER":229.5635,"MEAN_ANOMALY":318.6546,"EPHEMERIS_TYPE":0,"CLASSIFICATION_TYPE":"U","NORAD_CAT_ID":38977,"ELEMENT_SET_NO":999,"REV_AT_EPOCH":4887,"BSTAR":0,"MEAN_MOTION_DOT":-1.34e-6,"MEAN_MOTION_DDOT":0},{"OBJECT_NAME":"YAMAL 300K","OBJECT_ID":"2012-061B","EPOCH":"2026-04-04T01:40:35.851296","MEAN_MOTION":1.00272982,"ECCENTRICITY":3.939e-5,"INCLINATION":0.011,"RA_OF_ASC_NODE":186.0808,"ARG_OF_PERICENTER":45.6533,"MEAN_ANOMALY":168.75,"EPHEMERIS_TYPE":0,"CLASSIFICATION_TYPE":"U","NORAD_CAT_ID":38978,"ELEMENT_SET_NO":999,"REV_AT_EPOCH":4888,"BSTAR":0,"MEAN_MOTION_DOT":7.0e-7,"MEAN_MOTION_DDOT":0},{"OBJECT_NAME":"STAR ONE C3","OBJECT_ID":"2012-062A","EPOCH":"2026-04-05T12:23:19.527936","MEAN_MOTION":1.00271561,"ECCENTRICITY":0.00025838,"INCLINATION":0.0264,"RA_OF_ASC_NODE":268.0097,"ARG_OF_PERICENTER":129.82,"MEAN_ANOMALY":266.8032,"EPHEMERIS_TYPE":0,"CLASSIFICATION_TYPE":"U","NORAD_CAT_ID":38991,"ELEMENT_SET_NO":999,"REV_AT_EPOCH":4903,"BSTAR":0,"MEAN_MOTION_DOT":-2.47e-6,"MEAN_MOTION_DDOT":0},{"OBJECT_NAME":"EUTELSAT 21B","OBJECT_ID":"2012-062B","EPOCH":"2026-04-05T12:50:54.382560","MEAN_MOTION":1.00273586,"ECCENTRICITY":0.00028355,"INCLINATION":0.0719,"RA_OF_ASC_NODE":11.7056,"ARG_OF_PERICENTER":2.1257,"MEAN_ANOMALY":34.3238,"EPHEMERIS_TYPE":0,"CLASSIFICATION_TYPE":"U","NORAD_CAT_ID":38992,"ELEMENT_SET_NO":999,"REV_AT_EPOCH":4909,"BSTAR":0,"MEAN_MOTION_DOT":1.32e-6,"MEAN_MOTION_DDOT":0},{"OBJECT_NAME":"ECHOSTAR 16","OBJECT_ID":"2012-065A","EPOCH":"2026-04-05T12:27:11.657088","MEAN_MOTION":1.00274615,"ECCENTRICITY":0.00022296,"INCLINATION":0.0127,"RA_OF_ASC_NODE":200.6334,"ARG_OF_PERICENTER":182.8048,"MEAN_ANOMALY":295.6861,"EPHEMERIS_TYPE":0,"CLASSIFICATION_TYPE":"U","NORAD_CAT_ID":39008,"ELEMENT_SET_NO":999,"REV_AT_EPOCH":4891,"BSTAR":0,"MEAN_MOTION_DOT":0,"MEAN_MOTION_DDOT":0},{"OBJECT_NAME":"ZHONGXING-12","OBJECT_ID":"2012-067A","EPOCH":"2026-04-04T21:25:38.726112","MEAN_MOTION":1.00269413,"ECCENTRICITY":0.00034731,"INCLINATION":0.0126,"RA_OF_ASC_NODE":141.6621,"ARG_OF_PERICENTER":232.4187,"MEAN_ANOMALY":228.0087,"EPHEMERIS_TYPE":0,"CLASSIFICATION_TYPE":"U","NORAD_CAT_ID":39017,"ELEMENT_SET_NO":999,"REV_AT_EPOCH":4877,"BSTAR":0,"MEAN_MOTION_DOT":-2.05e-6,"MEAN_MOTION_DDOT":0},{"OBJECT_NAME":"EUTELSAT 70B","OBJECT_ID":"2012-069A","EPOCH":"2026-04-05T13:15:58.333536","MEAN_MOTION":1.00272449,"ECCENTRICITY":0.00017506,"INCLINATION":0.0654,"RA_OF_ASC_NODE":356.6182,"ARG_OF_PERICENTER":23.7584,"MEAN_ANOMALY":82.9776,"EPHEMERIS_TYPE":0,"CLASSIFICATION_TYPE":"U","NORAD_CAT_ID":39020,"ELEMENT_SET_NO":999,"REV_AT_EPOCH":4878,"BSTAR":0,"MEAN_MOTION_DOT":-4.2e-7,"MEAN_MOTION_DDOT":0},{"OBJECT_NAME":"YAMAL 402","OBJECT_ID":"2012-070A","EPOCH":"2026-04-05T14:43:02.241696","MEAN_MOTION":1.00271544,"ECCENTRICITY":0.00040684,"INCLINATION":1.0778,"RA_OF_ASC_NODE":85.0519,"ARG_OF_PERICENTER":289.2384,"MEAN_ANOMALY":95.2759,"EPHEMERIS_TYPE":0,"CLASSIFICATION_TYPE":"U","NORAD_CAT_ID":39022,"ELEMENT_SET_NO":999,"REV_AT_EPOCH":4867,"BSTAR":0,"MEAN_MOTION_DOT":8.8e-7,"MEAN_MOTION_DDOT":0},{"OBJECT_NAME":"SKYNET 5D","OBJECT_ID":"2012-075A","EPOCH":"2026-04-05T12:59:46.032864","MEAN_MOTION":1.00270648,"ECCENTRICITY":0.00039302,"INCLINATION":0.0736,"RA_OF_ASC_NODE":344.4342,"ARG_OF_PERICENTER":31.6308,"MEAN_ANOMALY":65.4767,"EPHEMERIS_TYPE":0,"CLASSIFICATION_TYPE":"U","NORAD_CAT_ID":39034,"ELEMENT_SET_NO":999,"REV_AT_EPOCH":4843,"BSTAR":0,"MEAN_MOTION_DOT":1.01e-6,"MEAN_MOTION_DDOT":0}]
