SES-5                   
1 38652U 12036A   26095.33655757  .00000035  00000+0  00000+0 0  9995
2 38652   0.0597 303.1903 0002010  75.2088 301.3666  1.00271602 43729
INTELSAT 20 (IS-20)     
1 38740U 12043A   26095.55136197 -.00000022  00000+0  00000+0 0  9994
2 38740   0.0192 137.4531 0002402  34.3093 289.0668  1.00269537 50018
HYLAS 2                 
1 38741U 12043B   26095.51671825 -.00000255  00000+0  00000+0 0  9991
2 38741   2.2397  81.9371 0002808 319.7571 265.6026  1.00272405 50045
INTELSAT 21 (IS-21)     
1 38749U 12045A   26095.09177222 -.00000284  00000+0  00000+0 0  9998
2 38749   0.0182 208.7390 0001952 184.6489 135.0477  1.00272496 49797
ASTRA 2F                
1 38778U 12051A   26095.53665167  .00000151  00000+0  00000+0 0  9998
2 38778   0.0639 254.8409 0001354  32.5613 127.8253  1.00270030 40407
GSAT-10                 
1 38779U 12051B   26095.62206637 -.00000163  00000+0  00000+0 0  9996
2 38779   0.0811 265.6459 0006317 172.1147  63.0868  1.00273119 49371
INTELSAT 23 (IS-23)     
1 38867U 12057A   26095.37243986 -.00000283  00000+0  00000+0 0  9993
2 38867   0.0155 247.5227 0000685 147.8597 239.3561  1.00282383 49227
BEIDOU-2 G6             
1 38953U 12059A   26095.54774503 -.00000173  00000+0  00000+0 0  9992
2 38953   4.2382  74.2871 0010945 311.9868  88.8156  1.00271756 49180
LUCH-5B                 
1 38977U 12061A   26095.17124588 -.00000134  00000+0  00000+0 0  9999
2 38977  10.3284  50.5926 0002337 229.5635 318.6546  1.00273707 48875
YAMAL 300K              
1 38978U 12061B   26094.06985939  .00000070  00000+0  00000+0 0  9990
2 38978   0.0110 186.0808 0000393  45.6533 168.7500  1.00272982 48887
STAR ONE C3             
1 38991U 12062A   26095.51619824 -.00000247  00000+0  00000+0 0  9991
2 38991   0.0264 268.0097 0002583 129.8200 266.8032  1.00271561 49032
EUTELSAT 21B            
1 38992U 12062B   26095.53535165  .00000132  00000+0  00000+0 0  9991
2 38992   0.0719  11.7056 0002835   2.1257  34.3238  1.00273586 49092
ECHOSTAR 16             
1 39008U 12065A   26095.51888492  .00000000  00000+0  00000+0 0  9999
2 39008   0.0127 200.6334 0002229 182.8048 295.6861  1.00274615 48911
ZHONGXING-12            
1 39017U 12067A   26094.89280933 -.00000205  00000+0  00000+0 0  9995
2 39017   0.0126 141.6621 0003473 232.4187 228.0087  1.00269413 48775
EUTELSAT 70B            
1 39020U 12069A   26095.55275849 -.00000042  00000+0  00000+0 0  9994
2 39020   0.0654 356.6182 0001750  23.7584  82.9776  1.00272449 48789
YAMAL 402               
1 39022U 12070A   26095.61322039  .00000088  00000+0  00000+0 0  9998
2 39022   1.0778  85.0519 0004068 289.2384  95.2759  1.00271544 48679
SKYNET 5D               
1 39034U 12075A   26095.54150501  .00000101  00000+0  00000+0 0  9997
2 39034   0.0736 344.4342 0003930  31.6308  65.4767  1.00270648 48439
